NORAD_CAT_ID,OBJECT_NAME,OBJECT_TYPE,EPOCH,MEAN_MOTION,ECCENTRICITY,INCLINATION,RA_OF_ASC_NODE,ARG_OF_PERICENTER,MEAN_ANOMALY,BSTAR,MEAN_MOTION_DOT,MEAN_MOTION_DDOT,TLE_LINE0,TLE_LINE1,TLE_LINE2,SEMIMAJOR_AXIS,PERIOD,APOGEE,PERIGEE,DECAYED
51152.0,STARLINK-3364,PAYLOAD,2023-05-08 09:52:56,15.08845867,4.92e-05,53.2145,281.1556,92.5442,267.5606,0.0002009,2.912e-05,0.0,0 STARLINK-3364,1 51152U 22005BA  23128.41176663  .00002912  00000-0  20090-3 0  9991,2 51152  53.2145 281.1556 0000492  92.5442 267.5606 15.08845867 73267,6917.862,95.437,540.068,539.387,0.0
51152.0,STARLINK-3364,PAYLOAD,2023-05-08 17:49:52,15.08855563,5.98e-05,53.2148,279.6677,85.138,274.968,0.00052787,8.127e-05,0.0,0 STARLINK-3364,1 51152U 22005BA  23128.74296383  .00008127  00000-0  52787-3 0  9991,2 51152  53.2148 279.6677 0000598  85.1380 274.9680 15.08855563 72203,6917.833,95.437,540.112,539.284,0.0
51152.0,STARLINK-3364,PAYLOAD,2023-05-09 12:54:30,15.08843272,7.07e-05,53.2161,276.098,69.8882,290.2186,0.00022733,3.332e-05,0.0,0 STARLINK-3364,1 51152U 22005BA  23129.53784760  .00003332  00000-0  22733-3 0  9991,2 51152  53.2161 276.0980 0000707  69.8882 290.2186 15.08843272 72323,6917.87,95.437,540.224,539.246,0.0
51152.0,STARLINK-3364,PAYLOAD,2023-05-10 12:45:17,15.08841836,7.62e-05,53.2156,271.6381,54.4751,305.6312,0.00012598,1.718e-05,0.0,0 STARLINK-3364,1 51152U 22005BA  23130.53144996  .00001718  00000-0  12598-3 0  9998,2 51152  53.2156 271.6381 0000762  54.4751 305.6312 15.08841836 72471,6917.875,95.437,540.267,539.213,0.0
51152.0,STARLINK-3364,PAYLOAD,2023-05-10 19:06:49,15.08854828,6.99e-05,53.217,270.4491,74.0934,286.0136,0.00036731,5.565e-05,0.0,0 STARLINK-3364,1 51152U 22005BA  23130.79640289  .00005565  00000-0  36731-3 0  9991,2 51152  53.2170 270.4491 0000699  74.0934 286.0136 15.08854828 72512,6917.835,95.437,540.184,539.217,0.0
51152.0,STARLINK-3364,PAYLOAD,2023-05-11 15:46:50,15.08843826,9.36e-05,53.2161,266.5831,47.6339,312.4732,0.00016345,2.315e-05,0.0,0 STARLINK-3364,1 51152U 22005BA  23131.65752940  .00002315  00000-0  16345-3 0  9994,2 51152  53.2161 266.5831 0000936  47.6339 312.4732 15.08843826 73754,6917.869,95.437,540.381,539.086,0.0
51152.0,STARLINK-3364,PAYLOAD,2023-05-13 01:09:56,15.08845007,9.39e-05,53.2172,260.3369,61.7665,298.3422,0.00013021,1.785e-05,0.0,0 STARLINK-3364,1 51152U 22005BA  23133.04856788  .00001785  00000-0  13021-3 0  9992,2 51152  53.2172 260.3369 0000939  61.7665 298.3422 15.08845007 73960,6917.865,95.437,540.38,539.08,0.0
51152.0,STARLINK-3364,PAYLOAD,2023-05-13 12:17:42,15.08740829,6.66e-05,53.2164,258.2552,102.2305,257.8762,-0.0017875,-0.00028545,0.0,0 STARLINK-3364,1 51152U 22005BA  23133.51229175 -.00028545  00000-0 -17875-2 0  9993,2 51152  53.2164 258.2552 0000666 102.2305 257.8762 15.08740829 74032,6918.184,95.444,540.509,539.588,0.0
51152.0,STARLINK-3364,PAYLOAD,2023-05-13 17:03:59,15.08616726,0.0001428,53.2168,257.3652,52.4906,307.6216,-0.0029927,-0.00047315,0.0,0 STARLINK-3364,1 51152U 22005BA  23133.71110463 -.00047315  00000-0 -29927-2 0  9991,2 51152  53.2168 257.3652 0001428  52.4906 307.6216 15.08616726 74066,6918.563,95.452,541.416,539.44,0.0
51152.0,STARLINK-3364,PAYLOAD,2023-05-14 01:01:04,15.085484,0.0004303,53.2169,255.8767,69.4822,290.6631,-0.0032797,-0.0005171,0.0,0 STARLINK-3364,1 51152U 22005BA  23134.04240977 -.00051710  00000-0 -32797-2 0  9995,2 51152  53.2169 255.8767 0004303  69.4822 290.6631 15.08548400 74118,6918.772,95.456,543.614,537.66,0.0
51152.0,STARLINK-3364,PAYLOAD,2023-05-14 14:00:01,15.08017978,0.0001225,53.2155,253.4539,88.171,330.4913,-0.00059782,-9.576e-05,0.0,0 STARLINK-3364,1 51152U 22005BA  23134.58334491 -.00009576  00000-0 -59782-3 0  9996,2 51152  53.2155 253.4539 0001225  88.1710 330.4913 15.08017978 74205,6920.394,95.49,543.107,541.411,0.0
51152.0,STARLINK-3364,PAYLOAD,2023-05-14 22:00:00,15.07954201,0.0001299,53.2152,251.9591,88.4831,340.7887,0.024769,0.0040743,0.0,0 STARLINK-3364,1 51152U 22005BA  23134.91667824  .00407430  00000-0  24769-1 0  9996,2 51152  53.2152 251.9591 0001299  88.4831 340.7887 15.07954201  1304,6920.589,95.494,543.353,541.555,0.0
51152.0,STARLINK-3364,PAYLOAD,2023-05-15 02:00:01,15.08044919,0.0001266,53.2154,251.2108,91.0906,163.4965,0.032181,0.00534254,0.0,0 STARLINK-3364,1 51152U 22005BA  23135.08334491  .00534254  00000-0  32181-1 0  9998,2 51152  53.2154 251.2108 0001266  91.0906 163.4965 15.08044919 74270,6920.312,95.488,543.053,541.301,0.0
51152.0,STARLINK-3364,PAYLOAD,2023-05-15 12:00:24,15.08385818,0.000158,53.2176,249.3404,77.1968,282.92,-0.001957,-0.00030916,0.0,0 STARLINK-3364,1 51152U 22005BA  23135.50028193 -.00030916  00000-0 -19570-2 0  9990,2 51152  53.2176 249.3404 0001580  77.1968 282.9200 15.08385818 73222,6919.269,95.466,542.227,540.041,0.0
51152.0,STARLINK-3364,PAYLOAD,2023-05-15 13:35:41,15.08466556,0.0001979,53.2173,249.0425,145.7375,214.3745,-0.00033302,-5.53e-05,0.0,0 STARLINK-3364,1 51152U 22005BA  23135.56644733 -.00005530  00000-0 -33302-3 0  9994,2 51152  53.2173 249.0425 0001979 145.7375 214.3745 15.08466556 74341,6919.022,95.461,542.256,539.518,0.0
51152.0,STARLINK-3364,PAYLOAD,2023-05-15 15:11:02,15.08510346,0.0001056,53.2174,248.7453,86.1803,273.931,8.1562e-05,1e-05,0.0,0 STARLINK-3364,1 51152U 22005BA  23135.63267093  .00001000  00000-0  81562-4 0  9990,2 51152  53.2174 248.7453 0001056  86.1803 273.9310 15.08510346 74356,6918.888,95.458,541.484,540.023,0.0
51152.0,STARLINK-3364,PAYLOAD,2023-05-16 13:26:39,15.08521985,0.0001499,53.2167,244.5909,66.723,293.392,0.0035475,0.00056129,0.0,0 STARLINK-3364,1 51152U 22005BA  23136.56017879  .00056129  00000-0  35475-2 0  9990,2 51152  53.2167 244.5909 0001499  66.7230 293.3920 15.08521985 74496,6918.853,95.458,541.755,539.68,0.0
51152.0,STARLINK-3364,PAYLOAD,2023-05-17 00:34:27,15.08575607,0.0001499,53.2178,242.5021,91.0989,269.0175,0.0034754,0.00055055,0.0,0 STARLINK-3364,1 51152U 22005BA  23137.02392426  .00055055  00000-0  34754-2 0  9992,2 51152  53.2178 242.5021 0001499  91.0989 269.0175 15.08575607 74563,6918.689,95.454,541.591,539.517,0.0
51152.0,STARLINK-3364,PAYLOAD,2023-05-17 18:03:43,15.08801424,0.0001561,53.2164,239.2325,98.3409,261.776,0.0016828,0.00026567,0.0,0 STARLINK-3364,1 51152U 22005BA  23137.75259258  .00026567  00000-0  16828-2 0  9995,2 51152  53.2164 239.2325 0001561  98.3409 261.7760 15.08801424 74675,6917.998,95.44,540.943,538.783,0.0
51152.0,STARLINK-3364,PAYLOAD,2023-05-17 21:14:31,15.08784479,0.0001406,53.2169,238.6362,100.5554,259.5597,0.0011867,0.0001862,0.0,0 STARLINK-3364,1 51152U 22005BA  23137.88508342  .00018620  00000-0  11867-2 0  9999,2 51152  53.2169 238.6362 0001406 100.5554 259.5597 15.08784479 73581,6918.05,95.441,540.888,538.942,0.0
51152.0,STARLINK-3364,PAYLOAD,2023-05-18 06:00:00,15.08817937,0.0001498,53.2167,236.9968,87.4712,96.0903,0.0023793,0.00037759,0.0,0 STARLINK-3364,1 51152U 22005BA  23138.25001157  .00037759  00000-0  23793-2 0  9998,2 51152  53.2167 236.9968 0001498  87.4712  96.0903 15.08817937 74753,6917.948,95.439,540.849,538.777,0.0
51152.0,STARLINK-3364,PAYLOAD,2023-05-18 14:00:01,15.08832762,0.0001533,53.2166,235.5022,77.8559,117.2882,-4.1861e-05,-9.54e-06,0.0,0 STARLINK-3364,1 51152U 22005BA  23138.58334491 -.00000954  00000-0 -41861-4 0  9991,2 51152  53.2166 235.5022 0001533  77.8559 117.2882 15.08832762  1306,6917.903,95.438,540.828,538.707,0.0
51152.0,STARLINK-3364,PAYLOAD,2023-05-18 22:00:00,15.08849823,0.0001443,53.2166,234.0051,80.7181,126.0149,-0.001286,-0.00020702,0.0,0 STARLINK-3364,1 51152U 22005BA  23138.91667824 -.00020702  00000-0 -12860-2 0  9995,2 51152  53.2166 234.0051 0001443  80.7181 126.0149 15.08849823 74856,6917.85,95.437,540.714,538.717,0.0
51152.0,STARLINK-3364,PAYLOAD,2023-05-19 09:48:21,15.08846053,0.0001491,53.2159,231.7963,85.3471,274.7692,0.00035182,5.317e-05,0.0,0 STARLINK-3364,1 51152U 22005BA  23139.40857868  .00005317  00000-0  35182-3 0  9995,2 51152  53.2159 231.7963 0001491  85.3471 274.7692 15.08846053 74924,6917.862,95.437,540.758,538.695,0.0
51152.0,STARLINK-3364,PAYLOAD,2023-05-19 11:23:44,15.08847546,0.0001506,53.2158,231.4995,82.0188,278.0975,0.00054801,8.446e-05,0.0,0 STARLINK-3364,1 51152U 22005BA  23139.47481944  .00008446  00000-0  54801-3 0  9995,2 51152  53.2158 231.4995 0001506  82.0188 278.0975 15.08847546 73828,6917.857,95.437,540.764,538.68,0.0
51152.0,STARLINK-3364,PAYLOAD,2023-05-20 11:14:30,15.08854352,0.0001522,53.2159,227.0387,89.0486,271.068,0.00039994,6.085e-05,0.0,0 STARLINK-3364,1 51152U 22005BA  23140.46841416  .00006085  00000-0  39994-3 0  9993,2 51152  53.2159 227.0387 0001522  89.0486 271.0680 15.08854352 75080,6917.837,95.437,540.754,538.649,0.0
51152.0,STARLINK-3364,PAYLOAD,2023-05-21 07:54:31,15.08842089,0.0001421,53.2148,223.1752,100.6305,259.4847,-0.00010639,-1.981e-05,0.0,0 STARLINK-3364,1 51152U 22005BA  23141.32953122 -.00001981  00000-0 -10639-3 0  9994,2 51152  53.2148 223.1752 0001421 100.6305 259.4847 15.08842089 75213,6917.874,95.437,540.722,538.756,0.0
51152.0,STARLINK-3364,PAYLOAD,2023-05-21 14:16:03,15.08848141,0.0001409,53.2155,221.9847,92.6372,267.4782,7.3541e-05,8.83e-06,0.0,0 STARLINK-3364,1 51152U 22005BA  23141.59448892  .00000883  00000-0  73541-4 0  9996,2 51152  53.2155 221.9847 0001409  92.6372 267.4782 15.08848141 74145,6917.856,95.437,540.695,538.746,0.0
51152.0,STARLINK-3364,PAYLOAD,2023-05-22 14:06:51,15.0883657,0.0001278,53.215,217.5248,90.2602,269.8536,-6.7514e-05,-1.362e-05,0.0,0 STARLINK-3364,1 51152U 22005BA  23142.58809679 -.00001362  00000-0 -67514-4 0  9998,2 51152  53.2150 217.5248 0001278  90.2602 269.8536 15.08836570 74292,6917.891,95.438,540.64,538.872,0.0
51152.0,STARLINK-3364,PAYLOAD,2023-05-23 21:54:34,15.08837078,0.0001325,53.2169,211.577,89.7394,270.375,0.00012034,1.628e-05,0.0,0 STARLINK-3364,1 51152U 22005BA  23143.91290321  .00001628  00000-0  12034-3 0  9993,2 51152  53.2169 211.5770 0001325  89.7394 270.3750 15.08837078 74491,6917.889,95.438,540.671,538.838,0.0
